{
    "links": {
        "self": "http://www.neowsapp.com/rest/v1/neo/3694044?api_key=iIulBulltgU6a56xZRHN4H3l9WmuAYTsLGpBGhQ2"
    },
    "id": "3694044",
    "neo_reference_id": "3694044",
    "name": "(2014 UQ33)",
    "designation": "2014 UQ33",
    "nasa_jpl_url": "http://ssd.jpl.nasa.gov/sbdb.cgi?sstr=3694044",
    "absolute_magnitude_h": 23.8,
    "estimated_diameter": {
        "kilometers": {
            "estimated_diameter_min": 0.046190746,
            "estimated_diameter_max": 0.1032856481
        },
        "meters": {
            "estimated_diameter_min": 46.1907460282,
            "estimated_diameter_max": 103.2856480504
        },
        "miles": {
            "estimated_diameter_min": 0.0287015901,
            "estimated_diameter_max": 0.0641787064
        },
        "feet": {
            "estimated_diameter_min": 151.544447199,
            "estimated_diameter_max": 338.8636855496
        }
    },
    "is_potentially_hazardous_asteroid": false,
    "close_approach_data": [
        {
            "close_approach_date": "2014-09-10",
            "close_approach_date_full": "2014-Sep-10 01:22",
            "epoch_date_close_approach": 1410312120000,
            "relative_velocity": {
                "kilometers_per_second": "6.1500604474",
                "kilometers_per_hour": "22140.2176105271",
                "miles_per_hour": "13757.0702147189"
            },
            "miss_distance": {
                "astronomical": "0.0897444218",
                "lunar": "34.9105800802",
                "kilometers": "13425574.345661566",
                "miles": "8342265.0624229708"
            },
            "orbiting_body": "Earth"
        }
    ],
    "orbital_data": {
        "orbit_id": "11",
        "orbit_determination_date": "2017-04-06 08:38:02",
        "first_observation_date": "2014-10-22",
        "last_observation_date": "2014-11-21",
        "data_arc_in_days": 30,
        "observations_used": 35,
        "orbit_uncertainty": "7",
        "minimum_orbit_intersection": ".0844523",
        "jupiter_tisserand_invariant": "3.514",
        "epoch_osculation": "2459000.5",
        "eccentricity": ".5060052812657553",
        "semi_major_axis": "2.162972184717122",
        "inclination": "4.925433779413814",
        "ascending_node_longitude": "210.7048439073847",
        "orbital_period": "1161.916258355393",
        "perihelion_distance": "1.06849683601933",
        "perihelion_argument": "137.8118293756481",
        "aphelion_distance": "3.257447533414915",
        "perihelion_time": "2459236.821664462513",
        "mean_anomaly": "286.7797497498458",
        "mean_motion": ".3098329999354286",
        "equinox": "J2000",
        "orbit_class": {
            "orbit_class_type": "AMO",
            "orbit_class_description": "Near-Earth asteroid orbits similar to that of 1221 Amor",
            "orbit_class_range": "1.017 AU < q (perihelion) < 1.3 AU"
        }
    },
    "is_sentry_object": false
}